{"type": "FeatureCollection", "features": [ {"type": "Feature", "properties": {"norad_id": 66613, "name": "STARLINK-36037", "group": "last-30-days", "lat": 26.95594198348119, "lon": 35.80174244375727, "alt_km": 334.6118347746533, "timestamp": "2025-12-03T06:58:42.033752+00:00", "meta": {"OBJECT_NAME": "STARLINK-36037", "OBJECT_ID": "2025-270AB", "EPOCH": "2025-12-02T20:00:03.000384", "MEAN_MOTION": 15.79128722, "ECCENTRICITY": 0.0001616, "INCLINATION": 42.9989, "RA_OF_ASC_NODE": 251.6684, "ARG_OF_PERICENTER": 265.146, "MEAN_ANOMALY": 151.2447, "EPHEMERIS_TYPE": 0, "CLASSIFICATION_TYPE": "U", "NORAD_CAT_ID": 66613, "ELEMENT_SET_NO": 999, "REV_AT_EPOCH": 280, "BSTAR": -0.011399, "MEAN_MOTION_DOT": -0.01840364, "MEAN_MOTION_DDOT": 0}, "tle": {"line1": "1 66613U 25270AB  25336.83336806 -.01840364  00000+0 -11399-1 0  9995", "line2": "2 66613  42.9989 251.6684 0001616 265.1460 151.2447 15.79128722  2803"}}, "geometry": {"type": "Point", "coordinates": [35.80174244375727, 26.95594198348119]}}, {"type": "Feature", "properties": {"norad_id": 66614, "name": "STARLINK-36040", "group": "last-30-days", "lat": 24.68725975231135, "lon": 39.31053805140436, "alt_km": 334.89792584461156, "timestamp": "2025-12-03T06:58:42.033764+00:00", "meta": {"OBJECT_NAME": "STARLINK-36040", "OBJECT_ID": "2025-270AC", "EPOCH": "2025-12-02T20:00:03.000384", "MEAN_MOTION": 15.79132968, "ECCENTRICITY": 0.0001567, "INCLINATION": 42.9989, "RA_OF_ASC_NODE": 251.6585, "ARG_OF_PERICENTER": 263.6786, "MEAN_ANOMALY": 156.6153, "EPHEMERIS_TYPE": 0, "CLASSIFICATION_TYPE": "U", "NORAD_CAT_ID": 66614, "ELEMENT_SET_NO": 999, "REV_AT_EPOCH": 265, "BSTAR": -0.01153, "MEAN_MOTION_DOT": -0.01859134, "MEAN_MOTION_DDOT": 0}, "tle": {"line1": "1 66614U 25270AC  25336.83336806 -.01859134  00000+0 -11530-1 0  9998", "line2": "2 66614  42.9989 251.6585 0001567 263.6786 156.6153 15.79132968  2656"}}, "geometry": {"type": "Point", "coordinates": [39.31053805140436, 24.68725975231135]}}, {"type": "Feature", "properties": {"norad_id": 66615, "name": "STARLINK-35988", "group": "last-30-days", "lat": 25.80552279785624, "lon": 37.61439825420057, "alt_km": 334.6892979493505, "timestamp": "2025-12-03T06:58:42.033774+00:00", "meta": {"OBJECT_NAME": "STARLINK-35988", "OBJECT_ID": "2025-270AD", "EPOCH": "2025-12-02T20:00:03.000384", "MEAN_MOTION": 15.79104828, "ECCENTRICITY": 0.0001506, "INCLINATION": 42.999, "RA_OF_ASC_NODE": 251.6633, "ARG_OF_PERICENTER": 260.8154, "MEAN_ANOMALY": 157.6084, "EPHEMERIS_TYPE": 0, "CLASSIFICATION_TYPE": "U", "NORAD_CAT_ID": 66615, "ELEMENT_SET_NO": 999, "REV_AT_EPOCH": 265, "BSTAR": -0.011422, "MEAN_MOTION_DOT": -0.01841812, "MEAN_MOTION_DDOT": 0}, "tle": {"line1": "1 66615U 25270AD  25336.83336806 -.01841812  00000+0 -11422-1 0  9993", "line2": "2 66615  42.9990 251.6633 0001506 260.8154 157.6084 15.79104828  2652"}}, "geometry": {"type": "Point", "coordinates": [37.61439825420057, 25.80552279785624]}}, {"type": "Feature", "properties": {"norad_id": 66616, "name": "STARLINK-35391", "group": "last-30-days", "lat": 23.504000674792866, "lon": 41.043023802239844, "alt_km": 335.0714728315679, "timestamp": "2025-12-03T06:58:42.033784+00:00", "meta": {"OBJECT_NAME": "STARLINK-35391", "OBJECT_ID": "2025-270AE", "EPOCH": "2025-12-02T20:00:03.000384", "MEAN_MOTION": 15.79114523, "ECCENTRICITY": 0.0001453, "INCLINATION": 42.9989, "RA_OF_ASC_NODE": 251.6536, "ARG_OF_PERICENTER": 263.9979, "MEAN_ANOMALY": 158.3042, "EPHEMERIS_TYPE": 0, "CLASSIFICATION_TYPE": "U", "NORAD_CAT_ID": 66616, "ELEMENT_SET_NO": 999, "REV_AT_EPOCH": 291, "BSTAR": -0.011553, "MEAN_MOTION_DOT": -0.01860851, "MEAN_MOTION_DDOT": 0}, "tle": {"line1": "1 66616U 25270AE  25336.83336806 -.01860851  00000+0 -11553-1 0  9993", "line2": "2 66616  42.9989 251.6536 0001453 263.9979 158.3042 15.79114523  2917"}}, "geometry": {"type": "Point", "coordinates": [41.043023802239844, 23.504000674792866]}}, {"type": "Feature", "properties": {"norad_id": 66645, "name": "SHENZHOU-22", "group": "last-30-days", "lat": -22.538961408197675, "lon": 46.0130838374048, "alt_km": 386.871736236546, "timestamp": "2025-12-03T06:58:42.033794+00:00", "meta": {"OBJECT_NAME": "SHENZHOU-22", "OBJECT_ID": "2025-272A", "EPOCH": "2025-12-02T14:12:45.225504", "MEAN_MOTION": 15.58538929, "ECCENTRICITY": 0.00102296, "INCLINATION": 41.4674, "RA_OF_ASC_NODE": 78.2835, "ARG_OF_PERICENTER": 314.561, "MEAN_ANOMALY": 45.4392, "EPHEMERIS_TYPE": 0, "CLASSIFICATION_TYPE": "U", "NORAD_CAT_ID": 66645, "ELEMENT_SET_NO": 999, "REV_AT_EPOCH": 26245, "BSTAR": 0.00035376094, "MEAN_MOTION_DOT": 0.00027659, "MEAN_MOTION_DDOT": 0}, "tle": {"line1": "1 66645U 25272A   25336.59219011  .00027659  00000+0  35376-3 0  9997", "line2": "2 66645  41.4674  78.2835 0010229 314.5610  45.4392 15.58538929262453"}}, "geometry": {"type": "Point", "coordinates": [46.0130838374048, -22.538961408197675]}}, {"type": "Feature", "properties": {"norad_id": 66646, "name": "CZ-2F R/B", "group": "last-30-days", "lat": -26.164019536913585, "lon": -75.61140639254468, "alt_km": 197.7704006355616, "timestamp": "2025-12-03T06:58:42.033806+00:00", "meta": {"OBJECT_NAME": "CZ-2F R/B", "OBJECT_ID": "2025-272B", "EPOCH": "2025-11-26T11:17:54.506400", "MEAN_MOTION": 16.01945612, "ECCENTRICITY": 0.01210796, "INCLINATION": 41.4431, "RA_OF_ASC_NODE": 114.9009, "ARG_OF_PERICENTER": 133.7676, "MEAN_ANOMALY": 227.3272, "EPHEMERIS_TYPE": 0, "CLASSIFICATION_TYPE": "U", "NORAD_CAT_ID": 66646, "ELEMENT_SET_NO": 999, "REV_AT_EPOCH": 21, "BSTAR": 0.00029319366, "MEAN_MOTION_DOT": 0.00449059, "MEAN_MOTION_DDOT": 7.567612e-06}, "tle": {"line1": "1 66646U 25272B   25330.47076975  .00449059  75676-5  29319-3 0  9998", "line2": "2 66646  41.4431 114.9009 0121079 133.7676 227.3272 16.01945612   217"}}, "geometry": {"type": "Point", "coordinates": [-75.61140639254468, -26.164019536913585]}}, {"type": "Feature", "properties": {"norad_id": 66647, "name": "COSMOS 2597 (RODNIK-S 22)", "group": "last-30-days", "lat": 2.844100772196133, "lon": -67.30750614770707, "alt_km": 1496.671780819388, "timestamp": "2025-12-03T06:58:42.033816+00:00", "meta": {"OBJECT_NAME": "COSMOS 2597 (RODNIK-S 22)", "OBJECT_ID": "2025-273A", "EPOCH": "2025-12-02T21:17:45.733632", "MEAN_MOTION": 12.41951063, "ECCENTRICITY": 0.0008155, "INCLINATION": 82.4981, "RA_OF_ASC_NODE": 292.5679, "ARG_OF_PERICENTER": 312.2306, "MEAN_ANOMALY": 47.808, "EPHEMERIS_TYPE": 0, "CLASSIFICATION_TYPE": "U", "NORAD_CAT_ID": 66647, "ELEMENT_SET_NO": 999, "REV_AT_EPOCH": 91, "BSTAR": -8.3282e-06, "MEAN_MOTION_DOT": 9e-08, "MEAN_MOTION_DDOT": 0}, "tle": {"line1": "1 66647U 25273A   25336.88733488  .00000009  00000+0 -83282-5 0  9993", "line2": "2 66647  82.4981 292.5679 0008155 312.2306  47.8080 12.41951063   918"}}, "geometry": {"type": "Point", "coordinates": [-67.30750614770707, 2.844100772196133]}}, {"type": "Feature", "properties": {"norad_id": 66648, "name": "COSMOS 2598 (RODNIK-S 23)", "group": "last-30-days", "lat": 11.090794883918162, "lon": -66.19758618315774, "alt_km": 1496.140025716085, "timestamp": "2025-12-03T06:58:42.033828+00:00", "meta": {"OBJECT_NAME": "COSMOS 2598 (RODNIK-S 23)", "OBJECT_ID": "2025-273B", "EPOCH": "2025-12-02T21:15:13.548672", "MEAN_MOTION": 12.42253007, "ECCENTRICITY": 0.0008238, "INCLINATION": 82.5022, "RA_OF_ASC_NODE": 292.5748, "ARG_OF_PERICENTER": 300.8575, "MEAN_ANOMALY": 59.1694, "EPHEMERIS_TYPE": 0, "CLASSIFICATION_TYPE": "U", "NORAD_CAT_ID": 66648, "ELEMENT_SET_NO": 999, "REV_AT_EPOCH": 91, "BSTAR": -0.00012614, "MEAN_MOTION_DOT": -8e-08, "MEAN_MOTION_DDOT": 0}, "tle": {"line1": "1 66648U 25273B   25336.88557348 -.00000008  00000+0 -12614-3 0  9992", "line2": "2 66648  82.5022 292.5748 0008238 300.8575  59.1694 12.42253007   917"}}, "geometry": {"type": "Point", "coordinates": [-66.19758618315774, 11.090794883918162]}}, {"type": "Feature", "properties": {"norad_id": 66649, "name": "COSMOS 2599 (RODNIK-S 24)", "group": "last-30-days", "lat": -4.784627785765365, "lon": -68.30310572228171, "alt_km": 1497.3294174303119, "timestamp": "2025-12-03T06:58:42.033839+00:00", "meta": {"OBJECT_NAME": "COSMOS 2599 (RODNIK-S 24)", "OBJECT_ID": "2025-273C", "EPOCH": "2025-12-02T21:20:06.499104", "MEAN_MOTION": 12.41671811, "ECCENTRICITY": 0.0008377, "INCLINATION": 82.5022, "RA_OF_ASC_NODE": 292.5776, "ARG_OF_PERICENTER": 322.5269, "MEAN_ANOMALY": 37.5225, "EPHEMERIS_TYPE": 0, "CLASSIFICATION_TYPE": "U", "NORAD_CAT_ID": 66649, "ELEMENT_SET_NO": 999, "REV_AT_EPOCH": 91, "BSTAR": -1.8507e-05, "MEAN_MOTION_DOT": 7e-08, "MEAN_MOTION_DDOT": 0}, "tle": {"line1": "1 66649U 25273C   25336.88896411  .00000007  00000+0 -18507-4 0  9996", "line2": "2 66649  82.5022 292.5776 0008377 322.5269  37.5225 12.41671811   910"}}, "geometry": {"type": "Point", "coordinates": [-68.30310572228171, -4.784627785765365]}}, {"type": "Feature", "properties": {"norad_id": 66650, "name": "2025-274A", "group": "last-30-days", "lat": -16.585522172287043, "lon": -93.02635076738876, "alt_km": 593.6860526117416, "timestamp": "2025-12-03T06:58:42.033851+00:00", "meta": {"OBJECT_NAME": "2025-274A", "OBJECT_ID": "2025-274A", "EPOCH": "2025-12-02T18:10:23.418336", "MEAN_MOTION": 14.91604403, "ECCENTRICITY": 0.0010438, "INCLINATION": 97.738, "RA_OF_ASC_NODE": 264.1291, "ARG_OF_PERICENTER": 289.935, "MEAN_ANOMALY": 70.0744, "EPHEMERIS_TYPE": 0, "CLASSIFICATION_TYPE": "U", "NORAD_CAT_ID": 66650, "ELEMENT_SET_NO": 999, "REV_AT_EPOCH": 91, "BSTAR": 0.000295, "MEAN_MOTION_DOT": 2.908e-05, "MEAN_MOTION_DDOT": 0}, "tle": {"line1": "1 66650U 25274A   25336.75721549  .00002908  00000+0  29500-3 0  9999", "line2": "2 66650  97.7380 264.1291 0010438 289.9350  70.0744 14.91604403   910"}}, "geometry": {"type": "Point", "coordinates": [-93.02635076738876, -16.585522172287043]}}]}